NORAD_CAT_ID,OBJECT_NAME,OBJECT_TYPE,EPOCH,MEAN_MOTION,ECCENTRICITY,INCLINATION,RA_OF_ASC_NODE,ARG_OF_PERICENTER,MEAN_ANOMALY,BSTAR,MEAN_MOTION_DOT,MEAN_MOTION_DDOT,TLE_LINE0,TLE_LINE1,TLE_LINE2,SEMIMAJOR_AXIS,PERIOD,APOGEE,PERIGEE,DECAYED
51970.0,STARLINK-3677,PAYLOAD,2022-04-26 22:00:00,15.68733336,0.00014,53.2171,260.5211,48.5219,114.3353,-0.0067045,-0.00716546,0.0,0 STARLINK-3677,1 51970U 22025Q   22116.91667824 -.00716546  00000-0 -67045-2 0  9993,2 51970  53.2171 260.5211 0001400  48.5219 114.3353 15.68733336  3664,6740.66,91.794,363.469,361.581,0.0
51970.0,STARLINK-3677,PAYLOAD,2022-04-27 06:00:00,15.68222281,0.0001279,53.2173,258.883,58.6104,187.4972,-0.0068266,-0.00714493,0.0,0 STARLINK-3677,1 51970U 22025Q   22117.25001157 -.00714493  00000-0 -68266-2 0  9997,2 51970  53.2173 258.8830 0001279  58.6104 187.4972 15.68222281  8937,6742.124,91.824,364.852,363.127,0.0
51970.0,STARLINK-3677,PAYLOAD,2022-04-27 14:00:01,15.67714692,0.0001377,53.2175,257.2497,45.2803,283.5268,-0.0070147,-0.00718656,0.0,0 STARLINK-3677,1 51970U 22025Q   22117.58335648 -.00718656  00000-0 -70147-2 0  9994,2 51970  53.2175 257.2497 0001377  45.2803 283.5268 15.67714692  3693,6743.58,91.853,366.37300000000016,364.516,0.0
51970.0,STARLINK-3677,PAYLOAD,2022-04-28 06:00:00,15.66693439,0.00014,53.2173,253.9826,47.2693,84.9073,-0.0072896,-0.00716474,0.0,0 STARLINK-3677,1 51970U 22025Q   22118.25001157 -.00716474  00000-0 -72896-2 0  9993,2 51970  53.2173 253.9826 0001400  47.2693  84.9073 15.66693439  9086,6746.51,91.913,369.319,367.43,0.0
51970.0,STARLINK-3677,PAYLOAD,2022-04-28 14:00:01,15.66181548,0.0001664,53.2175,252.3531,41.1669,171.8071,-0.0074046,-0.00713153,0.0,0 STARLINK-3677,1 51970U 22025Q   22118.58334491 -.00713153  00000-0 -74046-2 0  9999,2 51970  53.2175 252.3531 0001664  41.1669 171.8071 15.66181548  3702,6747.98,91.943,370.968,368.722,0.0
51970.0,STARLINK-3677,PAYLOAD,2022-04-29 06:00:00,15.6516263,0.0001347,53.2172,249.0935,40.8886,331.8427,-0.0077401,-0.00715187,0.0,0 STARLINK-3677,1 51970U 22025Q   22119.25001157 -.00715187  00000-0 -77401-2 0  9991,2 51970  53.2172 249.0935 0001347  40.8886 331.8427 15.65162630  9243,6750.908,92.003,373.682,371.864,0.0
51970.0,STARLINK-3677,PAYLOAD,2022-04-29 14:00:01,15.64653931,0.0001754999999999,53.2173,247.4679,32.0849,59.6039,-0.0079171,-0.0071673,0.0,0 STARLINK-3677,1 51970U 22025Q   22119.58334491 -.00716730  00000-0 -79171-2 0  9998,2 51970  53.2173 247.4679 0001755  32.0849  59.6039 15.64653931  3703,6752.371,92.033,375.421,373.051,0.0
51970.0,STARLINK-3677,PAYLOAD,2022-04-29 22:00:00,15.64144792,0.0001504,53.2172,245.8419,45.0867,124.9483,-0.0080968999999999,-0.00718082,0.0,0 STARLINK-3677,1 51970U 22025Q   22119.91667824 -.00718082  00000-0 -80969-2 0  9993,2 51970  53.2172 245.8419 0001504  45.0867 124.9483 15.64144792  3699,6753.8359999999975,92.063,376.717,374.686,0.0
51970.0,STARLINK-3677,PAYLOAD,2022-04-30 06:00:00,15.63633064,0.0001633,53.2174,244.2152,39.9592,207.811,-0.0082235,-0.00714933,0.0,0 STARLINK-3677,1 51970U 22025Q   22120.25001157 -.00714933  00000-0 -82235-2 0  9992,2 51970  53.2174 244.2152 0001633  39.9592 207.8110 15.63633064  9405,6755.31,92.093,378.278,376.072,0.0
51970.0,STARLINK-3677,PAYLOAD,2022-04-30 14:00:01,15.631240300000002,0.0001778,53.2176,242.5937,31.719,293.1705,-0.0084083,-0.00716329,0.0,0 STARLINK-3677,1 51970U 22025Q   22120.58334491 -.00716329  00000-0 -84083-2 0  9992,2 51970  53.2176 242.5937 0001778  31.7190 293.1705 15.63124030  3672,6756.776,92.123,379.843,377.44,0.0
51970.0,STARLINK-3677,PAYLOAD,2022-04-30 22:00:00,15.62614339,0.0001455,53.2172,240.9712,38.3238,3.0735,-0.0085749,-0.00715955,0.0,0 STARLINK-3677,1 51970U 22025Q   22120.91667824 -.00715955  00000-0 -85749-2 0  9992,2 51970  53.2172 240.9712 0001455  38.3238   3.0735 15.62614339  3709,6758.246,92.153,381.094,379.127,0.0
51970.0,STARLINK-3677,PAYLOAD,2022-05-01 06:00:00,15.62104013,0.0001798,53.2173,239.3485,31.8077,85.4862,-0.0087561,-0.00716607,0.0,0 STARLINK-3677,1 51970U 22025Q   22121.25001157 -.00716607  00000-0 -87561-2 0  9990,2 51970  53.2173 239.3485 0001798  31.8077  85.4862 15.62104013  9555,6759.717,92.183,382.798,380.367,0.0
51970.0,STARLINK-3677,PAYLOAD,2022-05-01 14:00:01,15.61592743,0.000196,53.2173,237.7305,33.148,159.4278,-0.0088975,-0.0071404,0.0,0 STARLINK-3677,1 51970U 22025Q   22121.58334491 -.00714040  00000-0 -88975-2 0  9995,2 51970  53.2173 237.7305 0001960  33.1480 159.4278 15.61592743  3683,6761.193,92.214,384.383,381.733,0.0
51970.0,STARLINK-3677,PAYLOAD,2022-05-01 22:00:01,15.61085414,0.0001452,53.2172,236.1116,47.3681,219.9416,-0.0091351,-0.00718281,0.0,0 STARLINK-3677,1 51970U 22025Q   22121.91668981 -.00718281  00000-0 -91351-2 0  9999,2 51970  53.2172 236.1116 0001452  47.3681 219.9416 15.61085414  3702,6762.658,92.244,385.505,383.541,0.0
51970.0,STARLINK-3677,PAYLOAD,2022-05-02 06:00:00,15.60572386,0.0001385,53.2174,234.4927,43.408,297.8954,-0.0092452,-0.00713078,0.0,0 STARLINK-3677,1 51970U 22025Q   22122.25001157 -.00713078  00000-0 -92452-2 0  9995,2 51970  53.2174 234.4927 0001385  43.4080 297.8954 15.60572386  9717,6764.14,92.274,386.941,385.068,0.0
51970.0,STARLINK-3677,PAYLOAD,2022-05-02 14:00:01,15.60065356,0.0001588,53.2174,232.8787,36.7949,17.9502,-0.0094914,-0.00717524,0.0,0 STARLINK-3677,1 51970U 22025Q   22122.58334491 -.00717524  00000-0 -94914-2 0  9996,2 51970  53.2174 232.8787 0001588  36.7949  17.9502 15.60065356  3704,6765.605,92.304,388.544,386.396,0.0
51970.0,STARLINK-3677,PAYLOAD,2022-05-02 22:00:01,15.59554078,0.0001522,53.2174,231.2631,41.8848,85.7574,-0.009646,-0.00715215,0.0,0 STARLINK-3677,1 51970U 22025Q   22122.91668981 -.00715215  00000-0 -96460-2 0  9990,2 51970  53.2174 231.2631 0001522  41.8848  85.7574 15.59554078  3702,6767.084,92.334,389.979,387.919,0.0
51970.0,STARLINK-3677,PAYLOAD,2022-05-03 04:00:00,15.59170549,0.000165,53.2174,230.0515,33.1695,58.6303,-0.0097681,-0.00713857,0.0,0 STARLINK-3677,1 51970U 22025Q   22123.16667824 -.00713857  00000-0 -97681-2 0  9999,2 51970  53.2174 230.0515 0001650  33.1695  58.6303 15.59170549  9854,6768.193,92.357,391.175,388.942,0.0
51970.0,STARLINK-3677,PAYLOAD,2022-05-03 14:00:01,15.585339499999998,0.000197,53.2176,228.0377,30.9794,240.4217,-0.010028,-0.00715218,0.0,0 STARLINK-3677,1 51970U 22025Q   22123.58334491 -.00715218  00000-0 -10028-1 0  9998,2 51970  53.2176 228.0377 0001970  30.9794 240.4217 15.58533950  3698,6770.036,92.395,393.235,390.568,0.0
51970.0,STARLINK-3677,PAYLOAD,2022-05-03 22:00:00,15.58024868,0.0001529,53.2174,226.4259,37.2175,305.1765,-0.010241,-0.00716239,0.0,0 STARLINK-3677,1 51970U 22025Q   22123.91667824 -.00716239  00000-0 -10241-1 0  9995,2 51970  53.2174 226.4259 0001529  37.2175 305.1765 15.58024868  3702,6771.511,92.425,394.411,392.341,0.0
51970.0,STARLINK-3677,PAYLOAD,2022-05-04 06:00:02,15.57512888,0.0001631,53.2175,224.8146,34.3212,18.5192,-0.010382,-0.00712532,0.0,0 STARLINK-3677,1 51970U 22025Q   22124.25002315 -.00712532  00000-0 -10382-1 0  9999,2 51970  53.2175 224.8146 0001631  34.3212  18.5192 15.57512888 10029,6772.995,92.455,395.964,393.755,0.0
51970.0,STARLINK-3677,PAYLOAD,2022-05-04 14:00:01,15.57004578,0.0002078,53.2173,223.208,27.5485,94.9925,-0.010627,-0.00715359,0.0,0 STARLINK-3677,1 51970U 22025Q   22124.58334491 -.00715359  00000-0 -10627-1 0  9990,2 51970  53.2173 223.2080 0002078  27.5485  94.9925 15.57004578  3700,6774.469,92.485,397.742,394.926,0.0
51970.0,STARLINK-3677,PAYLOAD,2022-05-04 22:00:01,15.56494785,0.0001656,53.2174,221.5996,42.3742,149.3868,-0.01084,-0.00715747,0.0,0 STARLINK-3677,1 51970U 22025Q   22124.91668981 -.00715747  00000-0 -10840-1 0  9999,2 51970  53.2174 221.5996 0001656  42.3742 149.3868 15.56494785  3703,6775.948,92.516,398.935,396.691,0.0
51970.0,STARLINK-3677,PAYLOAD,2022-05-05 06:00:00,15.55983341,0.0001708,53.2175,219.9921,39.1579,221.0809,-0.010987,-0.00712065,0.0,0 STARLINK-3677,1 51970U 22025Q   22125.25001157 -.00712065  00000-0 -10987-1 0  9995,2 51970  53.2175 219.9921 0001708  39.1579 221.0809 15.55983341 10186,6777.433000000001,92.546,400.455,398.14,0.0
51970.0,STARLINK-3677,PAYLOAD,2022-05-05 14:00:01,15.55475397,0.0001993,53.2176,218.3893,26.6308,301.5352,-0.011273,-0.00716571,0.0,0 STARLINK-3677,1 51970U 22025Q   22125.58334491 -.00716571  00000-0 -11273-1 0  9996,2 51970  53.2176 218.3893 0001993  26.6308 301.5352 15.55475397  3710,6778.908,92.576,402.124,399.422,0.0
51970.0,STARLINK-3677,PAYLOAD,2022-05-05 22:00:00,15.54964443,0.000143,53.2175,216.7845,41.0449,354.4383,-0.011453,-0.0071443,0.0,0 STARLINK-3677,1 51970U 22025Q   22125.91667824 -.00714430  00000-0 -11453-1 0  9994,2 51970  53.2175 216.7845 0001430  41.0449 354.4383 15.54964443  3693,6780.393,92.607,403.228,401.288,0.0
51970.0,STARLINK-3677,PAYLOAD,2022-05-06 08:00:01,15.54291282,0.0001721999999999,53.2169,214.7787,23.9672,184.8185,-0.010868,-0.00665494,0.0,0 STARLINK-3677,1 51970U 22025Q   22126.33334491 -.00665494  00000-0 -10868-1 0  9996,2 51970  53.2169 214.7787 0001722  23.9672 184.8185 15.54291282 10350,6782.351,92.647,405.383,403.048,0.0
51970.0,STARLINK-3677,PAYLOAD,2022-05-06 14:00:01,15.53943811,0.0002169,53.2176,213.5816,28.74,139.5367,-0.011863,-0.00712975,0.0,0 STARLINK-3677,1 51970U 22025Q   22126.58334491 -.00712975  00000-0 -11863-1 0  9996,2 51970  53.2176 213.5816 0002169  28.7400 139.5367 15.53943811  3729,6783.361999999999,92.667,406.698,403.755,0.0
51970.0,STARLINK-3677,PAYLOAD,2022-05-06 22:00:00,15.53435915,0.0001616,53.2174,211.9802,44.261,189.4936,-0.012159,-0.00716822,0.0,0 STARLINK-3677,1 51970U 22025Q   22126.91667824 -.00716822  00000-0 -12159-1 0  9996,2 51970  53.2174 211.9802 0001616  44.2610 189.4936 15.53435915 10440,6784.84,92.698,407.801,405.609,0.0
